StoreName,StoreType,StoreOpeningDate,Address,City,State,Country,Region,Manager Name
The Blissful Marketplace,Exclusive,1982-07-10,3637 Bradley Vista Port Lauraland  WA 50941,Morganview,Nebraska,Saint Kitts and Nevis,West,Martin
The Radiant Elegance,Exclusive,1990-04-30,40483 Wells Roads Brownmouth  FM 13440,Aaronport,Pennsylvania,Gabon,North,Hector
The Purely Haven,MBO,1975-06-26,7698 Walker Inlet Suite 310 Port Thomas  TX 14238,North Cassandra,Alaska,Cambodia,West,Eric
The Elegant Avenue,Outlet Stores,1997-12-17,791 Ross Crest West Michael  NM 93779,South Gordonborough,Missouri,Morocco,South,Anne
The Luxe Enclave,MBO,2018-07-12,68578 Dawn Loaf Apt. 422 Charlesland  SC 07547,Kellychester,Rhode Island,Guadeloupe,West,Bradley
The Timeless Reflections,Outlet Stores,2006-10-21,368 Felicia Village Suite 967 Washingtonville  FM 90174,West Robertochester,North Carolina,Ireland,North,Theodore
The Modern Perfection,Exclusive,1972-01-08,8845 Ellis Pike New Marcofort  VA 03143,South Eileen,Ohio,Honduras,East,Marcia
The Trendy Sanctuary,Outlet Stores,1991-05-17,070 James Station West Karinaberg  MT 66803,Starkshire,Oregon,Colombia,South,Kathryn
The Majestic Shoppe,Outlet Stores,1986-05-30,9366 Deborah Parkways Swansonmouth  OK 06841,North Jeffrey,New Jersey,Guam,South,Hannah
The Polished Treasures,Outlet Stores,2010-09-08,13702 Derrick Drive Suite 165 New Katie  GU 52957,Lake Rebeccamouth,Florida,French Southern Territories,West,Jeffery
The Urban Marvels,MBO,2023-07-19,8665 Jenkins Camp Ashleyville  NH 75333,North Jennifer,Louisiana,Lebanon,West,Adam
The Urban Deals,SMB,2021-12-09,4370 Fleming Key Mitchellborough  FM 59175,Amytown,Kansas,Singapore,South,Andrew
The Harmony Quest,Outlet Stores,1987-10-02,70713 Amy Ranch Apt. 195 South Catherinehaven  MT 31213,Blanchardstad,Louisiana,North Macedonia,East,John
The Whimsy Sanctuary,Outlet Stores,2007-07-23,5547 Brown Plain West Marisaberg  FL 50360,Joechester,Colorado,Fiji,South,Jamie
The Radiant Nook,SMB,2023-09-04,Unit 4905 Box 2240 DPO AP 40801,Simsfurt,South Dakota,New Zealand,East,Bradley
The Urban Hub,Exclusive,2006-03-05,2119 Harper Plains Suite 716 Port Timothy  AS 27932,Andreaside,West Virginia,Rwanda,North,Lori
The Rustic Oasis,SMB,1987-03-08,02445 Mitchell Lock Suite 253 Port Justinshire  LA 23151,South Jennastad,Maine,United Arab Emirates,South,Jackie
The Shimmer Shop,SMB,1972-03-29,632 Gregory Harbor Suite 457 North Juliastad  SC 61985,Patrickfurt,Colorado,Cuba,West,Jennifer
The Cozy Treasures,Exclusive,1993-10-06,Unit 3589 Box 1022 DPO AE 59142,North Kathryn,Nebraska,Wallis and Futuna,West,Antonio
The Vintage Deals,Outlet Stores,1991-06-13,8210 Gordon Station Suite 361 Jacksonport  NH 68763,West Marie,Indiana,Cambodia,West,William
The Trendy Enclave,MBO,1973-04-12,1548 Michelle Way Timothyport  LA 15425,New Anthony,North Carolina,Nicaragua,South,Terri
The Unique Shop,Outlet Stores,1975-09-01,4462 Simon Run Suite 486 Cherylmouth  MO 74856,West Michael,Michigan,Hungary,South,Daniel
The Enchanted Nook,Outlet Stores,1976-02-07,314 Victoria Knolls Matthewfurt  MS 19146,Dustinville,Alaska,Finland,East,Christopher
The Classy Nook,MBO,1974-06-21,87082 Johnson Plain Smithshire  VA 25001,Christinachester,New Hampshire,San Marino,West,Thomas
The Eclectic Merchant,Exclusive,2008-04-20,927 Davis Way East Danielle  NE 84777,East Heatherberg,Pennsylvania,Saint Helena,North,Victor
The Elegant Finds,SMB,1972-12-25,40173 George Mountains South Stephen  WV 12831,Davistown,New York,Monaco,West,Hector
The Classy Essentials,Exclusive,2006-06-22,487 Mercer Ford Suite 478 Reyestown  AZ 99005,New Christianstad,Virginia,New Zealand,North,Troy
The Shimmer Essentials,Exclusive,2009-02-18,665 Nicole Walk Turnerland  VT 30230,Johnfort,Georgia,Latvia,West,Samuel
The Unique Deals,Outlet Stores,1981-12-12,66297 Barbara Falls Apt. 176 Patriciaburgh  OH 33720,West Shane,Arkansas,Guatemala,West,Ryan
The Stylish Loft,SMB,1998-03-23,443 Yolanda Tunnel Mitchellfurt  RI 05716,Carolynville,Iowa,Cape Verde,East,Tracey
The Classy Oasis,MBO,1992-01-22,PSC 1145  Box 2482 APO AP 59340,Heatherland,Illinois,Papua New Guinea,West,Scott
The Whimsy Corner,SMB,1998-03-26,07029 James Prairie Thomasburgh  DC 31925,Heatherborough,California,Malawi,East,Joseph
The Golden Hub,Exclusive,1999-07-19,23391 Sergio Expressway Hillville  NJ 05981,Lake Rita,Oregon,Gambia,South,Samantha
The Cozy Shoppe,MBO,2014-01-15,82190 Williams Burg Apt. 811 Baxterchester  VA 80237,Robertside,Illinois,Philippines,West,Beth
The Cozy Creations,Exclusive,1974-02-26,21305 Davis Glen Suite 690 Troyburgh  SD 59265,Gordonhaven,Arkansas,Pitcairn Islands,East,Stacy
The Modern Cabinet,MBO,2022-06-07,48831 Adam Circles Port Lauraton  WV 57256,New James,South Dakota,Sierra Leone,East,Larry
The Urban Treasures,SMB,1995-01-28,9714 Johnson Trail Suite 813 South Tanner  SC 00687,West Leahborough,Connecticut,San Marino,North,Randall
The Shimmer Emporium,Exclusive,1986-03-28,354 Meyer Ports Port Matthew  AL 31022,South Franklin,Kentucky,Lesotho,West,Tamara
The Serene Enclave,Outlet Stores,1971-04-13,76135 Pratt Place West Robert  PA 91947,Alexhaven,Connecticut,Netherlands Antilles,North,Kristen
The Chic Reflections,SMB,2017-08-02,939 Schmidt Hill Apt. 278 Kentland  MI 70337,Mikeview,South Dakota,Senegal,North,Brandi
The Majestic Finds,Exclusive,1985-05-28,066 Johnson Spur Suite 126 Cruzborough  KS 76618,New Morganport,South Dakota,Antigua and Barbuda,East,Tammy
The Serene Finds,SMB,2007-03-01,252 Davis Course Suite 288 Atkinsonburgh  CA 51131,New Andrea,West Virginia,Greece,North,Carolyn
The Trendy Hub,Outlet Stores,2021-09-14,04661 Martin Mill Suite 247 Lozanochester  WA 18286,Kylechester,North Dakota,Nigeria,West,Dan
The Chic Merchant,Exclusive,2012-07-25,Unit 7936 Box 8578 DPO AP 30719,Jenniferville,Georgia,Nigeria,North,Heather
The Chic Boutique,Exclusive,2009-10-30,350 Perry Parks Donnamouth  ND 56293,North Gregory,Maine,Nauru,East,Mackenzie
The Unique Finds,MBO,2024-03-25,3433 Melissa Prairie Suite 025 Crawfordshire  UT 18961,Mirandabury,Tennessee,Turkmenistan,South,Patrick
The Artisan Haven,Exclusive,1980-03-19,483 Roberts Skyway South Gregoryfort  MN 05913,Brooksmouth,Michigan,Equatorial Guinea,North,Betty
The Elegant Shop,Outlet Stores,1994-11-27,499 Taylor Avenue Apt. 433 East Ashleyland  GU 31710,Nunezchester,Nebraska,Iraq,West,Joseph
The Purely Emporium,MBO,2015-09-11,25317 Alexander Green Suite 414 Chasestad  WI 64456,West Katherineton,California,Belarus,East,Cassie
The Eclectic Finds,Outlet Stores,2012-08-01,16237 Stacy Path Lake Dylan  IA 11544,South Johnchester,Montana,Honduras,West,Sandra
The Majestic Avenue,Outlet Stores,1991-06-02,154 Ray Wells South Mark  NC 85343,East Alan,New Mexico,Burundi,North,Kristen
The Luxe Deals,MBO,1979-07-03,006 Hernandez Parks Apt. 529 Port David  NE 90300,West Amy,Pennsylvania,Sri Lanka,South,Angela
The Radiant Boutique,Outlet Stores,1989-07-01,189 Garcia Mews Suite 622 East Lauren  AZ 16499,Jenniferburgh,Washington,Saint Lucia,East,Andrew
The Whimsy Quest,MBO,2005-10-23,668 Miller Cove Clarkfurt  CA 20745,North Herbert,Maine,Italy,North,Reginald
The Polished Shoppe,SMB,1986-01-01,482 Christopher Key Suite 789 East Hannahport  NV 76138,East Daniel,Kentucky,Syrian Arab Republic,South,Jared
The Vintage Haven,SMB,1997-12-26,PSC 1291  Box 7853 APO AP 63351,Grantburgh,Maine,Bahrain,East,Marvin
The Radiant Essentials,Exclusive,1984-04-16,645 Pearson Alley Lake Ashleyside  LA 37121,New Michaelburgh,New York,Heard Island and McDonald Islands,East,Daniel
The Eclectic Treasures,SMB,1993-07-13,Unit 5118 Box 5483 DPO AE 57693,Wardburgh,Mississippi,Mozambique,North,Michael
The Serene Shop,MBO,1999-12-08,331 Andrew Prairie Lewisfort  MD 48002,Ravenbury,New Jersey,Christmas Island,East,Timothy
The Radiant Cabinet,Outlet Stores,2004-12-21,917 Cheryl Coves Apt. 743 Lake Christopher  NM 07449,Toddshire,Minnesota,Switzerland,West,David
The Blissful Treasures,Exclusive,2003-01-27,25869 Morrison Keys Lake Danatown  FL 78944,Elizabethview,Arkansas,Burkina Faso,South,Nicholas
The Majestic Haven,Exclusive,1989-06-09,51130 Castillo Stravenue Lake Michelleburgh  MS 37829,South Jordan,North Dakota,Kuwait,West,Caitlin
The Vintage Avenue,Outlet Stores,1971-07-13,413 Watkins Plaza Apt. 689 South Juanville  ND 74568,Port Antonio,Illinois,Afghanistan,North,Tommy
The Golden Perfection,Exclusive,1983-07-20,6298 Smith Springs Joelside  NM 56408,Dylanhaven,New Hampshire,Congo,West,Summer
The Stylish Marvels,MBO,2012-08-28,7631 Donovan Greens Suite 600 Brianfort  MS 74704,Reynoldshaven,North Dakota,Afghanistan,North,Claudia
The Enchanted Shoppe,SMB,1999-12-25,39138 Harris Port North Carrie  UT 39248,New Jeffreyview,Washington,Malawi,South,Sara
The Rustic Marvels,SMB,1981-04-03,634 Keller Station Mayshire  ND 81376,North Davidtown,Louisiana,Congo,West,Dorothy
The Luxe Avenue,MBO,1976-08-30,5769 Barrera Heights West Vanessa  FM 90449,South Lindaview,Michigan,Jamaica,West,Samuel
The Modern Shop,MBO,2005-10-26,4077 Mcguire Shores Stephanieville  NH 18382,Davidton,North Dakota,Mali,East,Steven
The Elegant Deals,Exclusive,2005-02-03,9205 Rebecca Green Port Anthony  GA 31820,Robertburgh,Florida,Ecuador,South,Monica
The Blissful Marketplace,SMB,2013-11-22,74985 Campbell Cliff New Erintown  IL 57209,Thomasstad,Florida,Netherlands,North,Ryan
The Whimsy Corner,Exclusive,2023-08-20,8582 Mcintyre Fall Jamiestad  ID 22093,South Samueltown,Florida,Papua New Guinea,South,Jennifer
The Urban Oasis,Outlet Stores,2004-11-06,094 Stewart Well Morganmouth  WA 87207,Douglastown,North Carolina,Colombia,South,Rachel
The Luxe Shop,MBO,1973-02-02,786 Amy Mountains Apt. 530 Lake William  OR 85055,Laneburgh,Illinois,Mauritania,South,Wanda
The Happy Nook,Exclusive,2003-07-07,0331 Barry Rapids Suite 755 Garcialand  NV 90640,West Christopherchester,Illinois,Cayman Islands,South,Melinda
The Urban Marketplace,SMB,1988-08-06,8530 Ramos Expressway Lake Frankview  ND 96364,East Carolton,South Carolina,Vietnam,West,Tyler
The Rustic Vault,SMB,1982-11-23,7953 John Inlet Suite 579 North Scott  DE 86071,West Austinberg,Nebraska,Jordan,South,Harold
The Eclectic Creations,MBO,1988-12-01,372 Bauer Light West Danielle  GU 07805,West Steven,New Hampshire,French Guiana,South,Johnathan
The Stylish Cabinet,MBO,1979-12-14,622 Curry Landing Apt. 650 Tiffanyfurt  FL 32332,Christopherview,Connecticut,Lesotho,East,Edgar
The Purely Marvels,Exclusive,1996-01-09,33563 Tracy Trail North Steveport  GA 27026,Port Christopherton,Virginia,Ecuador,North,Megan
The Happy Deals,Exclusive,1983-10-12,58263 Jasmine Neck Apt. 075 Martinezburgh  AR 26191,Ortegatown,Missouri,Chile,West,Mary
The Unique Hub,MBO,1999-10-25,915 Jeffrey Fork South Colton  ID 98137,Lake Markville,New York,Croatia,South,Kevin
The Rustic Haven,Exclusive,1982-02-14,PSC 9411  Box 7808 APO AA 68339,Stephanieborough,Michigan,Canada,East,Ronald
The Eclectic Corner,SMB,2009-09-25,USNV Johnson FPO AE 29056,Lake Christopher,Nevada,Congo,North,Cynthia
The Artisan Merchant,MBO,2005-04-02,0164 Erin Unions Lake Pennyton  NH 93201,Wilkinsbury,Alaska,Lesotho,North,William
The Polished Cabinet,SMB,2024-01-14,95235 Evans Cove North Sierra  WV 20088,Thomasbury,Georgia,Guam,West,Grant
The Majestic Oasis,Exclusive,2023-01-27,507 Simmons Route Kylestad  MO 23086,East Dianeborough,Nebraska,Lebanon,North,Calvin
The Artisan Treasures,MBO,1974-09-15,4881 Smith Hills Apt. 104 Meganport  AL 70331,South Alexis,Mississippi,Sri Lanka,West,James
The Purely Marketplace,Exclusive,2002-01-31,51322 Brandon Square East Kristophershire  VI 62259,New William,Ohio,Nepal,South,Cassandra
The Rustic Elegance,Outlet Stores,2002-03-10,8363 Armstrong Station Suite 701 East Nicole  IL 88734,Carterberg,Iowa,Guinea-Bissau,South,Robert
The Whimsy Sanctuary,MBO,1980-10-09,PSC 5062  Box 2789 APO AP 84695,Daniellemouth,Wisconsin,Gabon,East,Gina
The Enchanted Vault,Outlet Stores,1976-07-16,693 Carrie Inlet Apt. 358 Danielberg  VI 63909,Courtneyburgh,New Mexico,Samoa,East,Diana
The Timeless Avenue,Outlet Stores,2015-06-21,139 Watson Spring Jordanmouth  FM 82900,Baileychester,Michigan,Lao People's Democratic Republic,West,James
The Majestic Shop,SMB,2022-04-25,10969 Kimberly Cliff Wallaceland  ME 61817,New Danielle,Colorado,Venezuela,South,Robert
The Vintage Treasures,MBO,2020-02-23,9039 Patricia Roads Suite 385 Rachelstad  NE 74996,Ellisburgh,Virginia,Sweden,North,Randy
The Harmony Essentials,Outlet Stores,2009-12-22,973 Baker Extensions Lake Dylan  WY 47227,New Melissatown,Maryland,Guam,West,Susan
The Vintage Creations,MBO,2008-11-19,08005 Kristine Locks Port William  CO 60586,Maryton,Nevada,Christmas Island,North,Dustin
The Timeless Merchant,Outlet Stores,1992-05-13,PSC 6930  Box 5099 APO AA 84491,Tracytown,Kentucky,Thailand,South,Christine
The Classy Marvels,Exclusive,2004-01-23,7887 Kristin Coves Suite 552 South Barbaraville  MN 26314,Stoneside,Arkansas,Mali,West,Glenn
The Serene Finds,SMB,2002-08-23,16420 David Valley Apt. 923 North Cathy  AZ 51219,New Derek,Hawaii,Burundi,North,Richard
